CCSDS_OMM_VERS = 2.0
CREATION_DATE  = 
ORIGINATOR     = 

OBJECT_NAME    = UNKNOWN
OBJECT_ID      = 
CENTER_NAME    = EARTH
REF_FRAME      = TEME
TIME_SYSTEM    = UTC
MEAN_ELEMENT_THEORY = SGP/SGP4

EPOCH          = 2025-11-20T09:13:19.842816
MEAN_MOTION    = 12.80758244
ECCENTRICITY   = .01143009
INCLINATION    = 63.5226
RA_OF_ASC_NODE = 212.2815
ARG_OF_PERICENTER = 73.5725
MEAN_ANOMALY   = 287.7796

EPHEMERIS_TYPE = 0
CLASSIFICATION_TYPE = U
NORAD_CAT_ID   = 270238
ELEMENT_SET_NO = 999
REV_AT_EPOCH   = 27161
BSTAR          = .23678074E-2
MEAN_MOTION_DOT = .485E-5
MEAN_MOTION_DDOT = 0

CCSDS_OMM_VERS = 2.0
CREATION_DATE  = 
ORIGINATOR     = 

OBJECT_NAME    = UNKNOWN
OBJECT_ID      = 
CENTER_NAME    = EARTH
REF_FRAME      = TEME
TIME_SYSTEM    = UTC
MEAN_ELEMENT_THEORY = SGP/SGP4

EPOCH          = 2025-12-08T05:41:29.396256
MEAN_MOTION    = 12.27245053
ECCENTRICITY   = .01690807
INCLINATION    = 82.4541
RA_OF_ASC_NODE = 332.1858
ARG_OF_PERICENTER = 359.4210
MEAN_ANOMALY   = 0.6639

EPHEMERIS_TYPE = 0
CLASSIFICATION_TYPE = U
NORAD_CAT_ID   = 270239
ELEMENT_SET_NO = 999
REV_AT_EPOCH   = 26149
BSTAR          = .20926514E-1
MEAN_MOTION_DOT = .2494E-4
MEAN_MOTION_DDOT = 0

CCSDS_OMM_VERS = 2.0
CREATION_DATE  = 
ORIGINATOR     = 

OBJECT_NAME    = UNKNOWN
OBJECT_ID      = 
CENTER_NAME    = EARTH
REF_FRAME      = TEME
TIME_SYSTEM    = UTC
MEAN_ELEMENT_THEORY = SGP/SGP4

EPOCH          = 2025-11-19T13:37:10.061184
MEAN_MOTION    = 12.63633752
ECCENTRICITY   = .01425916
INCLINATION    = 82.4188
RA_OF_ASC_NODE = 260.7192
ARG_OF_PERICENTER = 323.1984
MEAN_ANOMALY   = 35.9383

EPHEMERIS_TYPE = 0
CLASSIFICATION_TYPE = U
NORAD_CAT_ID   = 270240
ELEMENT_SET_NO = 999
REV_AT_EPOCH   = 26550
BSTAR          = .18051914E-1
MEAN_MOTION_DOT = .3429E-4
MEAN_MOTION_DDOT = 0

CCSDS_OMM_VERS = 2.0
CREATION_DATE  = 
ORIGINATOR     = 

OBJECT_NAME    = UNKNOWN
OBJECT_ID      = 
CENTER_NAME    = EARTH
REF_FRAME      = TEME
TIME_SYSTEM    = UTC
MEAN_ELEMENT_THEORY = SGP/SGP4

EPOCH          = 2025-12-02T08:30:25.776000
MEAN_MOTION    = 12.94277121
ECCENTRICITY   = .00313784
INCLINATION    = 90.2440
RA_OF_ASC_NODE = 1.8983
ARG_OF_PERICENTER = 50.3614
MEAN_ANOMALY   = 310.0266

EPHEMERIS_TYPE = 0
CLASSIFICATION_TYPE = U
NORAD_CAT_ID   = 270241
ELEMENT_SET_NO = 999
REV_AT_EPOCH   = 27524
BSTAR          = .10220632E-2
MEAN_MOTION_DOT = .292E-5
MEAN_MOTION_DDOT = 0

CCSDS_OMM_VERS = 2.0
CREATION_DATE  = 
ORIGINATOR     = 

OBJECT_NAME    = UNKNOWN
OBJECT_ID      = 
CENTER_NAME    = EARTH
REF_FRAME      = TEME
TIME_SYSTEM    = UTC
MEAN_ELEMENT_THEORY = SGP/SGP4

EPOCH          = 2025-11-24T19:27:44.167104
MEAN_MOTION    = 12.98514293
ECCENTRICITY   = .00447956
INCLINATION    = 90.2384
RA_OF_ASC_NODE = 2.9879
ARG_OF_PERICENTER = 183.8239
MEAN_ANOMALY   = 176.2547

EPHEMERIS_TYPE = 0
CLASSIFICATION_TYPE = U
NORAD_CAT_ID   = 270242
ELEMENT_SET_NO = 999
REV_AT_EPOCH   = 27492
BSTAR          = -.57630753E-3
MEAN_MOTION_DOT = -.163E-5
MEAN_MOTION_DDOT = 0

CCSDS_OMM_VERS = 2.0
CREATION_DATE  = 
ORIGINATOR     = 

OBJECT_NAME    = UNKNOWN
OBJECT_ID      = 
CENTER_NAME    = EARTH
REF_FRAME      = TEME
TIME_SYSTEM    = UTC
MEAN_ELEMENT_THEORY = SGP/SGP4

EPOCH          = 2025-11-20T09:08:53.228832
MEAN_MOTION    = 13.90474340
ECCENTRICITY   = .03288677
INCLINATION    = 98.3063
RA_OF_ASC_NODE = 191.4435
ARG_OF_PERICENTER = 140.7310
MEAN_ANOMALY   = 221.8210

EPHEMERIS_TYPE = 0
CLASSIFICATION_TYPE = U
NORAD_CAT_ID   = 270243
ELEMENT_SET_NO = 999
REV_AT_EPOCH   = 3401
BSTAR          = .15673344E-2
MEAN_MOTION_DOT = .2984E-4
MEAN_MOTION_DDOT = 0

CCSDS_OMM_VERS = 2.0
CREATION_DATE  = 
ORIGINATOR     = 

OBJECT_NAME    = UNKNOWN
OBJECT_ID      = 
CENTER_NAME    = EARTH
REF_FRAME      = TEME
TIME_SYSTEM    = UTC
MEAN_ELEMENT_THEORY = SGP/SGP4

EPOCH          = 2025-12-09T11:10:24.130848
MEAN_MOTION    = 10.71467810
ECCENTRICITY   = .09962545
INCLINATION    = 101.9029
RA_OF_ASC_NODE = 264.1420
ARG_OF_PERICENTER = 244.4375
MEAN_ANOMALY   = 105.0393

EPHEMERIS_TYPE = 0
CLASSIFICATION_TYPE = U
NORAD_CAT_ID   = 270246
ELEMENT_SET_NO = 999
REV_AT_EPOCH   = 22941
BSTAR          = -.22107288E-1
MEAN_MOTION_DOT = -.1023E-4
MEAN_MOTION_DDOT = 0

CCSDS_OMM_VERS = 2.0
CREATION_DATE  = 
ORIGINATOR     = 

OBJECT_NAME    = UNKNOWN
OBJECT_ID      = 
CENTER_NAME    = EARTH
REF_FRAME      = TEME
TIME_SYSTEM    = UTC
MEAN_ELEMENT_THEORY = SGP/SGP4

EPOCH          = 2025-12-08T09:35:43.569312
MEAN_MOTION    = 12.78786118
ECCENTRICITY   = .00645315
INCLINATION    = 66.0656
RA_OF_ASC_NODE = 337.1504
ARG_OF_PERICENTER = 23.6957
MEAN_ANOMALY   = 336.7007

EPHEMERIS_TYPE = 0
CLASSIFICATION_TYPE = U
NORAD_CAT_ID   = 270247
ELEMENT_SET_NO = 999
REV_AT_EPOCH   = 27149
BSTAR          = .22968266E-2
MEAN_MOTION_DOT = .458E-5
MEAN_MOTION_DDOT = 0

CCSDS_OMM_VERS = 2.0
CREATION_DATE  = 
ORIGINATOR     = 

OBJECT_NAME    = UNKNOWN
OBJECT_ID      = 
CENTER_NAME    = EARTH
REF_FRAME      = TEME
TIME_SYSTEM    = UTC
MEAN_ELEMENT_THEORY = SGP/SGP4

EPOCH          = 2025-12-04T06:29:39.229152
MEAN_MOTION    = 12.25449045
ECCENTRICITY   = .00086152
INCLINATION    = 82.4667
RA_OF_ASC_NODE = 338.9257
ARG_OF_PERICENTER = 53.9143
MEAN_ANOMALY   = 306.2724

EPHEMERIS_TYPE = 0
CLASSIFICATION_TYPE = U
NORAD_CAT_ID   = 270248
ELEMENT_SET_NO = 999
REV_AT_EPOCH   = 25856
BSTAR          = .92975063E-2
MEAN_MOTION_DOT = .1039E-4
MEAN_MOTION_DDOT = 0

CCSDS_OMM_VERS = 2.0
CREATION_DATE  = 
ORIGINATOR     = 

OBJECT_NAME    = UNKNOWN
OBJECT_ID      = 
CENTER_NAME    = EARTH
REF_FRAME      = TEME
TIME_SYSTEM    = UTC
MEAN_ELEMENT_THEORY = SGP/SGP4

EPOCH          = 2025-11-30T19:55:59.935584
MEAN_MOTION    = 12.95379541
ECCENTRICITY   = .00280452
INCLINATION    = 90.2378
RA_OF_ASC_NODE = 2.1332
ARG_OF_PERICENTER = 2.6934
MEAN_ANOMALY   = 357.4331

EPHEMERIS_TYPE = 0
CLASSIFICATION_TYPE = U
NORAD_CAT_ID   = 270249
ELEMENT_SET_NO = 999
REV_AT_EPOCH   = 27290
BSTAR          = .21973971E-2
MEAN_MOTION_DOT = .627E-5
MEAN_MOTION_DDOT = 0

CCSDS_OMM_VERS = 2.0
CREATION_DATE  = 
ORIGINATOR     = 

OBJECT_NAME    = UNKNOWN
OBJECT_ID      = 
CENTER_NAME    = EARTH
REF_FRAME      = TEME
TIME_SYSTEM    = UTC
MEAN_ELEMENT_THEORY = SGP/SGP4

EPOCH          = 2025-12-06T01:09:44.066016
MEAN_MOTION    = 12.59574015
ECCENTRICITY   = .02204937
INCLINATION    = 82.4330
RA_OF_ASC_NODE = 256.7050
ARG_OF_PERICENTER = 325.4897
MEAN_ANOMALY   = 33.2040

EPHEMERIS_TYPE = 0
CLASSIFICATION_TYPE = U
NORAD_CAT_ID   = 270250
ELEMENT_SET_NO = 999
REV_AT_EPOCH   = 26458
BSTAR          = .21487983E-1
MEAN_MOTION_DOT = .4075E-4
MEAN_MOTION_DDOT = 0

CCSDS_OMM_VERS = 2.0
CREATION_DATE  = 
ORIGINATOR     = 

OBJECT_NAME    = UNKNOWN
OBJECT_ID      = 
CENTER_NAME    = EARTH
REF_FRAME      = TEME
TIME_SYSTEM    = UTC
MEAN_ELEMENT_THEORY = SGP/SGP4

EPOCH          = 2025-12-09T12:25:42.853440
MEAN_MOTION    = 11.48417774
ECCENTRICITY   = .0651141
INCLINATION    = 102.3264
RA_OF_ASC_NODE = 271.6993
ARG_OF_PERICENTER = 171.0812
MEAN_ANOMALY   = 190.2443

EPHEMERIS_TYPE = 0
CLASSIFICATION_TYPE = U
NORAD_CAT_ID   = 270251
ELEMENT_SET_NO = 999
REV_AT_EPOCH   = 24305
BSTAR          = .24824856E-2
MEAN_MOTION_DOT = .144E-5
MEAN_MOTION_DDOT = 0

CCSDS_OMM_VERS = 2.0
CREATION_DATE  = 
ORIGINATOR     = 

OBJECT_NAME    = UNKNOWN
OBJECT_ID      = 
CENTER_NAME    = EARTH
REF_FRAME      = TEME
TIME_SYSTEM    = UTC
MEAN_ELEMENT_THEORY = SGP/SGP4

EPOCH          = 2025-11-26T04:13:38.771616
MEAN_MOTION    = 12.62395919
ECCENTRICITY   = .00005971
INCLINATION    = 51.9800
RA_OF_ASC_NODE = 133.7270
ARG_OF_PERICENTER = 109.1923
MEAN_ANOMALY   = 250.9008

EPHEMERIS_TYPE = 0
CLASSIFICATION_TYPE = U
NORAD_CAT_ID   = 270252
ELEMENT_SET_NO = 999
REV_AT_EPOCH   = 26690
BSTAR          = .16107142E-3
MEAN_MOTION_DOT = -.75E-6
MEAN_MOTION_DDOT = 0

CCSDS_OMM_VERS = 2.0
CREATION_DATE  = 
ORIGINATOR     = 

OBJECT_NAME    = UNKNOWN
OBJECT_ID      = 
CENTER_NAME    = EARTH
REF_FRAME      = TEME
TIME_SYSTEM    = UTC
MEAN_ELEMENT_THEORY = SGP/SGP4

EPOCH          = 2025-11-20T09:13:51.053952
MEAN_MOTION    = 13.00181137
ECCENTRICITY   = .00353117
INCLINATION    = 90.2436
RA_OF_ASC_NODE = 2.1837
ARG_OF_PERICENTER = 65.4738
MEAN_ANOMALY   = 295.0059

EPHEMERIS_TYPE = 0
CLASSIFICATION_TYPE = U
NORAD_CAT_ID   = 270253
ELEMENT_SET_NO = 999
REV_AT_EPOCH   = 27231
BSTAR          = .15294627E-2
MEAN_MOTION_DOT = .47E-5
MEAN_MOTION_DDOT = 0

CCSDS_OMM_VERS = 2.0
CREATION_DATE  = 
ORIGINATOR     = 

OBJECT_NAME    = UNKNOWN
OBJECT_ID      = 
CENTER_NAME    = EARTH
REF_FRAME      = TEME
TIME_SYSTEM    = UTC
MEAN_ELEMENT_THEORY = SGP/SGP4

EPOCH          = 2025-12-04T08:35:47.749056
MEAN_MOTION    = 12.93250410
ECCENTRICITY   = .0035409
INCLINATION    = 90.2445
RA_OF_ASC_NODE = 3.2397
ARG_OF_PERICENTER = 64.6613
MEAN_ANOMALY   = 295.8166

EPHEMERIS_TYPE = 0
CLASSIFICATION_TYPE = U
NORAD_CAT_ID   = 270256
ELEMENT_SET_NO = 999
REV_AT_EPOCH   = 27383
BSTAR          = .10095083E-2
MEAN_MOTION_DOT = .284E-5
MEAN_MOTION_DDOT = 0

CCSDS_OMM_VERS = 2.0
CREATION_DATE  = 
ORIGINATOR     = 

OBJECT_NAME    = UNKNOWN
OBJECT_ID      = 
CENTER_NAME    = EARTH
REF_FRAME      = TEME
TIME_SYSTEM    = UTC
MEAN_ELEMENT_THEORY = SGP/SGP4

EPOCH          = 2025-12-06T17:16:35.755392
MEAN_MOTION    = 14.77518706
ECCENTRICITY   = .00771078
INCLINATION    = 86.0826
RA_OF_ASC_NODE = 332.6677
ARG_OF_PERICENTER = 322.8350
MEAN_ANOMALY   = 36.7545

EPHEMERIS_TYPE = 0
CLASSIFICATION_TYPE = U
NORAD_CAT_ID   = 270257
ELEMENT_SET_NO = 999
REV_AT_EPOCH   = 7806
BSTAR          = .1616335E-1
MEAN_MOTION_DOT = .123031E-2
MEAN_MOTION_DDOT = 0

